NORAD_CAT_ID,OBJECT_NAME,OBJECT_TYPE,EPOCH,MEAN_MOTION,ECCENTRICITY,INCLINATION,RA_OF_ASC_NODE,ARG_OF_PERICENTER,MEAN_ANOMALY,BSTAR,MEAN_MOTION_DOT,MEAN_MOTION_DDOT,TLE_LINE0,TLE_LINE1,TLE_LINE2,SEMIMAJOR_AXIS,PERIOD,APOGEE,PERIGEE,DECAYED
53542.0,STARLINK-4489,PAYLOAD,2024-06-13 21:51:35,15.08841192,0.0001522,53.2188,29.2631,100.1733,259.9431,-6.2361e-05,-1.28e-05,0.0,0 STARLINK-4489,1 53542U 22101R   24165.91082397 -.00001280  00000-0 -62361-4 0  9997,2 53542  53.2188  29.2631 0001522 100.1733 259.9431 15.08841192101314,6917.877,95.437,540.795,538.689,0.0
53542.0,STARLINK-4489,PAYLOAD,2024-06-14 21:42:22,15.08840728,0.0001494,53.2185,24.8089,106.5873,253.5283,4.2027e-05,3.81e-06,0.0,0 STARLINK-4489,1 53542U 22101R   24166.90442303  .00000381  00000-0  42027-4 0  9990,2 53542  53.2185  24.8089 0001494 106.5873 253.5283 15.08840728101467,6917.878,95.438,540.777,538.71,0.0
53542.0,STARLINK-4489,PAYLOAD,2024-06-15 13:36:14,15.08804191,0.0001365,53.2178,21.8352,107.8282,252.2859,0.00049034,7.517e-05,0.0,0 STARLINK-4489,1 53542U 22101R   24167.56683722  .00007517  00000-0  49034-3 0  9997,2 53542  53.2178  21.8352 0001365 107.8282 252.2859 15.08804191101564,6917.99,95.44,540.799,538.911,0.0
53542.0,STARLINK-4489,PAYLOAD,2024-06-15 21:33:09,15.08840776,0.0001414,53.218,20.3488,101.0618,259.0534,3.7058e-05,3.02e-06,0.0,0 STARLINK-4489,1 53542U 22101R   24167.89802581  .00000302  00000-0  37058-4 0  9998,2 53542  53.2180  20.3488 0001414 101.0618 259.0534 15.08840776101615,6917.878,95.438,540.721,538.765,0.0
53542.0,STARLINK-4489,PAYLOAD,2024-06-16 07:05:28,15.08841781,0.0001379,53.2183,18.5618,88.9755,271.1395,5.0672e-05,5.19e-06,0.0,0 STARLINK-4489,1 53542U 22101R   24168.29546406  .00000519  00000-0  50672-4 0  9991,2 53542  53.2183  18.5618 0001379  88.9755 271.1395 15.08841781101670,6917.875,95.437,540.694,538.786,0.0
53542.0,STARLINK-4489,PAYLOAD,2024-06-16 21:23:56,15.08839024,0.0001475,53.2189,15.8873,89.4436,270.6725,-4.9805e-06,-3.67e-06,0.0,0 STARLINK-4489,1 53542U 22101R   24168.89162857 -.00000367  00000-0 -49805-5 0  9991,2 53542  53.2189  15.8873 0001475  89.4436 270.6725 15.08839024101766,6917.883,95.438,540.769,538.728,0.0
53542.0,STARLINK-4489,PAYLOAD,2024-06-17 21:14:43,15.08838152,0.0001292,53.2179,11.4242,78.7239,281.3898,-1.6398e-05,-5.49e-06,0.0,0 STARLINK-4489,1 53542U 22101R   24169.88523075 -.00000549  00000-0 -16398-4 0  9996,2 53542  53.2179  11.4242 0001292  78.7239 281.3898 15.08838152101228,6917.886,95.438,540.645,538.857,0.0
53542.0,STARLINK-4489,PAYLOAD,2024-06-18 06:47:02,15.08842884,0.0001427,53.2188,9.6419,82.1275,277.9879,1.9118e-05,1.6e-07,0.0,0 STARLINK-4489,1 53542U 22101R   24170.28266677  .00000016  00000-0  19118-4 0  9994,2 53542  53.2188   9.6419 0001427  82.1275 277.9879 15.08842884101971,6917.872,95.437,540.724,538.749,0.0
53542.0,STARLINK-4489,PAYLOAD,2024-06-18 19:30:07,15.08843662,0.0001307,53.2184,7.2626,78.1089,282.005,0.00010438,1.374e-05,0.0,0 STARLINK-4489,1 53542U 22101R   24170.81258171  .00001374  00000-0  10438-3 0  9996,2 53542  53.2184   7.2626 0001307  78.1089 282.0050 15.08843662101362,6917.869,95.437,540.638,538.83,0.0
53542.0,STARLINK-4489,PAYLOAD,2024-06-18 22:40:53,15.08850228,0.000137,53.2183,6.6679,78.1877,281.9269,7.4516e-05,8.99e-06,0.0,0 STARLINK-4489,1 53542U 22101R   24170.94505848  .00000899  00000-0  74516-4 0  9995,2 53542  53.2183   6.6679 0001370  78.1877 281.9269 15.08850228102072,6917.849,95.437,540.662,538.766,0.0
53542.0,STARLINK-4489,PAYLOAD,2024-06-19 06:37:49,15.08838698,0.0001371,53.2176,5.1762,96.3432,263.7716,4.21e-05,3.82e-06,0.0,0 STARLINK-4489,1 53542U 22101R   24171.27626503  .00000382  00000-0  42100-4 0  9995,2 53542  53.2176   5.1762 0001371  96.3432 263.7716 15.08838698101432,6917.884,95.438,540.698,538.801,0.0
53542.0,STARLINK-4489,PAYLOAD,2024-06-19 19:20:55,15.08833751,0.0001517,53.2191,2.8004,86.6481,273.4685,-3.7462e-05,-8.84e-06,0.0,0 STARLINK-4489,1 53542U 22101R   24171.80619305 -.00000884  00000-0 -37462-4 0  9990,2 53542  53.2191   2.8004 0001517  86.6481 273.4685 15.08833751101517,6917.899,95.438,540.814,538.715,0.0
53542.0,STARLINK-4489,PAYLOAD,2024-06-19 22:31:40,15.08838729,0.0001326,53.2184,2.2043,100.6054,259.5088,-9.2235e-06,-4.35e-06,0.0,0 STARLINK-4489,1 53542U 22101R   24171.93866804 -.00000435  00000-0 -92235-5 0  9994,2 53542  53.2184   2.2043 0001326 100.6054 259.5088 15.08838729102228,6917.884,95.438,540.667,538.832,0.0
53542.0,STARLINK-4489,PAYLOAD,2024-06-20 12:50:09,15.08836234,0.0001367,53.2194,359.5265,107.4103,252.7039,-6.6985e-05,-1.354e-05,0.0,0 STARLINK-4489,1 53542U 22101R   24172.53483248 -.00001354  00000-0 -66985-4 0  9991,2 53542  53.2194 359.5265 0001367 107.4103 252.7039 15.08836234102318,6917.892,95.438,540.703,538.811,0.0
53542.0,STARLINK-4489,PAYLOAD,2024-06-20 19:11:41,15.08837043,0.0001303,53.2188,358.3378,105.4659,254.6478,-8.7314e-06,-4.27e-06,0.0,0 STARLINK-4489,1 53542U 22101R   24172.79978995 -.00000427  00000-0 -87314-5 0  9997,2 53542  53.2188 358.3378 0001303 105.4659 254.6478 15.08837043102358,6917.889,95.438,540.656,538.853,0.0
53542.0,STARLINK-4489,PAYLOAD,2024-06-21 12:40:56,15.08824456,0.0001266,53.2182,355.0679,99.5437,260.5699,0.00017916,2.563e-05,0.0,0 STARLINK-4489,1 53542U 22101R   24173.52843295  .00002563  00000-0  17916-3 0  9993,2 53542  53.2182 355.0679 0001266  99.5437 260.5699 15.08824456101775,6917.928,95.439,540.669,538.917,0.0
53542.0,STARLINK-4489,PAYLOAD,2024-06-21 19:02:28,15.0884073,0.0001257,53.2183,353.8779,95.9642,264.1494,7.0491e-05,8.34e-06,0.0,0 STARLINK-4489,1 53542U 22101R   24173.79338708  .00000834  00000-0  70491-4 0  9997,2 53542  53.2183 353.8779 0001257  95.9642 264.1494 15.08840730101812,6917.878,95.438,540.613,538.874,0.0
53542.0,STARLINK-4489,PAYLOAD,2024-06-22 12:31:43,15.08833855,0.0001326,53.2191,350.6112,99.4692,260.645,1.1488e-05,-1.05e-06,0.0,0 STARLINK-4489,1 53542U 22101R   24174.52203576 -.00000105  00000-0  11488-4 0  9996,2 53542  53.2191 350.6112 0001326  99.4692 260.6450 15.08833855101923,6917.899,95.438,540.681,538.847,0.0
53542.0,STARLINK-4489,PAYLOAD,2024-06-22 20:28:39,15.08838895,0.0001329,53.2194,349.1247,99.213,260.9012,4.9295e-05,4.97e-06,0.0,0 STARLINK-4489,1 53542U 22101R   24174.85323202  .00000497  00000-0  49295-4 0  9991,2 53542  53.2194 349.1247 0001329  99.2130 260.9012 15.08838895102664,6917.884,95.438,540.668,538.829,0.0
53542.0,STARLINK-4489,PAYLOAD,2024-06-23 20:19:26,15.08840269,0.0001443,53.22,344.6624,102.4939,257.6215,-3.2537e-05,-8.06e-06,0.0,0 STARLINK-4489,1 53542U 22101R   24175.84683554 -.00000806  00000-0 -32537-4 0  9997,2 53542  53.2200 344.6624 0001443 102.4939 257.6215 15.08840269102815,6917.88,95.438,540.743,538.746,0.0
53542.0,STARLINK-4489,PAYLOAD,2024-06-24 10:37:54,15.0883981,0.0001277,53.2201,341.9852,95.9687,264.1451,2.0955e-05,4.6e-07,0.0,0 STARLINK-4489,1 53542U 22101R   24176.44299484  .00000046  00000-0  20955-4 0  9994,2 53542  53.2201 341.9852 0001277  95.9687 264.1451 15.08839810102219,6917.881,95.438,540.629,538.863,0.0
53542.0,STARLINK-4489,PAYLOAD,2024-06-24 18:34:49,15.08847941,0.0001463,53.2197,340.5012,92.2253,267.8907,5.6658e-05,6.14e-06,0.0,0 STARLINK-4489,1 53542U 22101R   24176.77418816  .00000614  00000-0  56658-4 0  9992,2 53542  53.2197 340.5012 0001463  92.2253 267.8907 15.08847941102267,6917.856,95.437,540.733,538.709,0.0
53542.0,STARLINK-4489,PAYLOAD,2024-06-25 16:50:14,15.08839622,0.0001355,53.219,336.3388,76.2489,283.8654,-1.0276e-05,-4.51e-06,0.0,0 STARLINK-4489,1 53542U 22101R   24177.70155618 -.00000451  00000-0 -10276-4 0  9991,2 53542  53.2190 336.3388 0001355  76.2489 283.8654 15.08839622102402,6917.882,95.438,540.684,538.809,0.0
53542.0,STARLINK-4489,PAYLOAD,2024-06-26 03:57:56,15.08842664,0.0001342,53.2189,334.2568,78.0083,282.106,1.6911e-05,-1.9e-07,0.0,0 STARLINK-4489,1 53542U 22101R   24178.16523251 -.00000019  00000-0  16911-4 0  9995,2 53542  53.2189 334.2568 0001342  78.0083 282.1060 15.08842664103160,6917.872,95.437,540.666,538.809,0.0
53542.0,STARLINK-4489,PAYLOAD,2024-06-27 13:21:01,15.08838781,0.0001787,53.2174,328.0032,122.8449,237.2716,3.0785e-05,2.02e-06,0.0,0 STARLINK-4489,1 53542U 22101R   24179.55627116  .00000202  00000-0  30785-4 0  9992,2 53542  53.2174 328.0032 0001787 122.8449 237.2716 15.08838781102688,6917.884,95.438,540.985,538.513,0.0
53542.0,STARLINK-4489,PAYLOAD,2024-06-27 16:31:48,15.08835217,0.0001372,53.2189,327.4146,90.7073,269.4077,-1.9867e-05,-6.04e-06,0.0,0 STARLINK-4489,1 53542U 22101R   24179.68875624 -.00000604  00000-0 -19867-4 0  9991,2 53542  53.2189 327.4146 0001372  90.7073 269.4077 15.08835217103396,6917.895,95.438,540.709,538.811,0.0
53542.0,STARLINK-4489,PAYLOAD,2024-06-28 13:11:48,15.08863472,0.0001358,53.2189,323.5496,82.8473,277.2674,-0.00025478,-4.343e-05,0.0,0 STARLINK-4489,1 53542U 22101R   24180.54986558 -.00004343  00000-0 -25478-3 0  9995,2 53542  53.2189 323.5496 0001358  82.8473 277.2674 15.08863472102833,6917.809,95.436,540.613,538.734,0.0
53542.0,STARLINK-4489,PAYLOAD,2024-06-28 14:47:12,15.08842098,0.0001574,53.217,323.2516,75.1979,284.9187,3.593e-05,2.84e-06,0.0,0 STARLINK-4489,1 53542U 22101R   24180.61611284  .00000284  00000-0  35930-4 0  9997,2 53542  53.2170 323.2516 0001574  75.1979 284.9187 15.08842098103532,6917.874,95.437,540.828,538.65,0.0
53542.0,STARLINK-4489,PAYLOAD,2024-06-28 16:22:34,15.08849569,0.000127,53.2184,322.9544,96.3031,263.8106,0.00022317,3.267e-05,0.0,0 STARLINK-4489,1 53542U 22101R   24180.68233887  .00003267  00000-0  22317-3 0  9991,2 53542  53.2184 322.9544 0001270  96.3031 263.8106 15.08849569103549,6917.851,95.437,540.595,538.838,0.0
53542.0,STARLINK-4489,PAYLOAD,2024-06-29 01:54:54,15.08828749,0.0001392,53.2187,321.1707,89.6995,270.4157,4.2755e-05,3.92e-06,0.0,0 STARLINK-4489,1 53542U 22101R   24181.07979870  .00000392  00000-0  42755-4 0  9999,2 53542  53.2187 321.1707 0001392  89.6995 270.4157 15.08828749102910,6917.915,95.438,540.743,538.817,0.0
